{
    "links": {
        "self": "http://www.neowsapp.com/rest/v1/neo/54065905?api_key=iIulBulltgU6a56xZRHN4H3l9WmuAYTsLGpBGhQ2"
    },
    "id": "54065905",
    "neo_reference_id": "54065905",
    "name": "(2020 TW5)",
    "designation": "2020 TW5",
    "nasa_jpl_url": "http://ssd.jpl.nasa.gov/sbdb.cgi?sstr=54065905",
    "absolute_magnitude_h": 23.963,
    "estimated_diameter": {
        "kilometers": {
            "estimated_diameter_min": 0.0428504095,
            "estimated_diameter_max": 0.0958164285
        },
        "meters": {
            "estimated_diameter_min": 42.8504094992,
            "estimated_diameter_max": 95.8164285039
        },
        "miles": {
            "estimated_diameter_min": 0.0266260018,
            "estimated_diameter_max": 0.05953755
        },
        "feet": {
            "estimated_diameter_min": 140.5853375013,
            "estimated_diameter_max": 314.3583712927
        }
    },
    "is_potentially_hazardous_asteroid": false,
    "close_approach_data": [
        {
            "close_approach_date": "2020-10-27",
            "close_approach_date_full": "2020-Oct-27 03:07",
            "epoch_date_close_approach": 1603768020000,
            "relative_velocity": {
                "kilometers_per_second": "10.6844555686",
                "kilometers_per_hour": "38464.0400470835",
                "miles_per_hour": "23900.0586614781"
            },
            "miss_distance": {
                "astronomical": "0.1071571783",
                "lunar": "41.6841423587",
                "kilometers": "16030485.628890221",
                "miles": "9960881.8775622098"
            },
            "orbiting_body": "Earth"
        }
    ],
    "orbital_data": {
        "orbit_id": "2",
        "orbit_determination_date": "2020-10-19 08:22:15",
        "first_observation_date": "2020-10-14",
        "last_observation_date": "2020-10-18",
        "data_arc_in_days": 4,
        "observations_used": 29,
        "orbit_uncertainty": "8",
        "minimum_orbit_intersection": ".0618133",
        "jupiter_tisserand_invariant": "3.472",
        "epoch_osculation": "2459137.5",
        "eccentricity": ".5386564598094298",
        "semi_major_axis": "2.17662918122579",
        "inclination": "7.149073029643318",
        "ascending_node_longitude": "204.437359609558",
        "orbital_period": "1172.938111644449",
        "perihelion_distance": "1.004173812148808",
        "perihelion_argument": "224.1767978570775",
        "aphelion_distance": "3.349084550302771",
        "perihelion_time": "2459175.101307414672",
        "mean_anomaly": "348.4593479102628",
        "mean_motion": ".3069215642548123",
        "equinox": "J2000",
        "orbit_class": {
            "orbit_class_type": "APO",
            "orbit_class_description": "Near-Earth asteroid orbits which cross the Earth’s orbit similar to that of 1862 Apollo",
            "orbit_class_range": "a (semi-major axis) > 1.0 AU; q (perihelion) < 1.017 AU"
        }
    },
    "is_sentry_object": false
}